SKYKRAFT-1C             
1 55061U 23001BE  26068.70960345  .00004538  00000+0  18809-3 0  9997
2 55061  97.3326 124.5476 0011974 132.0782 228.1477 15.24327539176324
STARLINK-36447          
1 67425U 26005X   26068.53504780  .00029523  00000+0  10777-2 0  9995
2 67425  43.0012 238.7868 0002124 286.3221  73.7398 15.27590263  8679
